CCSDS_OMM_VERS = 2.0
CREATION_DATE  = 
ORIGINATOR     = 

OBJECT_NAME    = STARLINK-35877
OBJECT_ID      = 2025-294V
CENTER_NAME    = EARTH
REF_FRAME      = TEME
TIME_SYSTEM    = UTC
MEAN_ELEMENT_THEORY = SGP/SGP4

EPOCH          = 2026-01-04T06:00:02.000160
MEAN_MOTION    = 15.40686506
ECCENTRICITY   = .00013845
INCLINATION    = 43.0006
RA_OF_ASC_NODE = 46.9218
ARG_OF_PERICENTER = 253.2173
MEAN_ANOMALY   = 233.2353

EPHEMERIS_TYPE = 0
CLASSIFICATION_TYPE = U
NORAD_CAT_ID   = 67049
ELEMENT_SET_NO = 999
REV_AT_EPOCH   = 391
BSTAR          = .42916742E-3
MEAN_MOTION_DOT = .17657E-3
MEAN_MOTION_DDOT = 0

CCSDS_OMM_VERS = 2.0
CREATION_DATE  = 
ORIGINATOR     = 

OBJECT_NAME    = STARLINK-36078
OBJECT_ID      = 2025-294W
CENTER_NAME    = EARTH
REF_FRAME      = TEME
TIME_SYSTEM    = UTC
MEAN_ELEMENT_THEORY = SGP/SGP4

EPOCH          = 2026-01-04T03:30:06.147936
MEAN_MOTION    = 15.50634449
ECCENTRICITY   = .00014202
INCLINATION    = 43.0000
RA_OF_ASC_NODE = 47.2977
ARG_OF_PERICENTER = 249.2400
MEAN_ANOMALY   = 110.8309

EPHEMERIS_TYPE = 0
CLASSIFICATION_TYPE = U
NORAD_CAT_ID   = 67050
ELEMENT_SET_NO = 999
REV_AT_EPOCH   = 487
BSTAR          = .18401569E-2
MEAN_MOTION_DOT = .109347E-2
MEAN_MOTION_DDOT = 0

CCSDS_OMM_VERS = 2.0
CREATION_DATE  = 
ORIGINATOR     = 

OBJECT_NAME    = STARLINK-35706
OBJECT_ID      = 2025-294X
CENTER_NAME    = EARTH
REF_FRAME      = TEME
TIME_SYSTEM    = UTC
MEAN_ELEMENT_THEORY = SGP/SGP4

EPOCH          = 2026-01-04T03:29:36.473856
MEAN_MOTION    = 15.50638827
ECCENTRICITY   = .00014731
INCLINATION    = 43.0002
RA_OF_ASC_NODE = 47.2946
ARG_OF_PERICENTER = 255.1877
MEAN_ANOMALY   = 104.8821

EPHEMERIS_TYPE = 0
CLASSIFICATION_TYPE = U
NORAD_CAT_ID   = 67051
ELEMENT_SET_NO = 999
REV_AT_EPOCH   = 487
BSTAR          = .20078532E-2
MEAN_MOTION_DOT = .119519E-2
MEAN_MOTION_DDOT = 0

CCSDS_OMM_VERS = 2.0
CREATION_DATE  = 
ORIGINATOR     = 

OBJECT_NAME    = STARLINK-35720
OBJECT_ID      = 2025-294Y
CENTER_NAME    = EARTH
REF_FRAME      = TEME
TIME_SYSTEM    = UTC
MEAN_ELEMENT_THEORY = SGP/SGP4

EPOCH          = 2026-01-03T13:34:17.256864
MEAN_MOTION    = 15.50629292
ECCENTRICITY   = .00013255
INCLINATION    = 43.0002
RA_OF_ASC_NODE = 50.6818
ARG_OF_PERICENTER = 262.1109
MEAN_ANOMALY   = 97.9601

EPHEMERIS_TYPE = 0
CLASSIFICATION_TYPE = U
NORAD_CAT_ID   = 67052
ELEMENT_SET_NO = 999
REV_AT_EPOCH   = 478
BSTAR          = .21257384E-2
MEAN_MOTION_DOT = .126628E-2
MEAN_MOTION_DDOT = 0

CCSDS_OMM_VERS = 2.0
CREATION_DATE  = 
ORIGINATOR     = 

OBJECT_NAME    = STARLINK-35739
OBJECT_ID      = 2025-294Z
CENTER_NAME    = EARTH
REF_FRAME      = TEME
TIME_SYSTEM    = UTC
MEAN_ELEMENT_THEORY = SGP/SGP4

EPOCH          = 2026-01-03T12:01:02.381664
MEAN_MOTION    = 15.50618718
ECCENTRICITY   = .00014385
INCLINATION    = 43.0002
RA_OF_ASC_NODE = 51.0559
ARG_OF_PERICENTER = 270.2642
MEAN_ANOMALY   = 89.8054

EPHEMERIS_TYPE = 0
CLASSIFICATION_TYPE = U
NORAD_CAT_ID   = 67053
ELEMENT_SET_NO = 999
REV_AT_EPOCH   = 477
BSTAR          = .26198408E-2
MEAN_MOTION_DOT = .156688E-2
MEAN_MOTION_DDOT = 0

CCSDS_OMM_VERS = 2.0
CREATION_DATE  = 
ORIGINATOR     = 

OBJECT_NAME    = STARLINK-35754
OBJECT_ID      = 2025-294AA
CENTER_NAME    = EARTH
REF_FRAME      = TEME
TIME_SYSTEM    = UTC
MEAN_ELEMENT_THEORY = SGP/SGP4

EPOCH          = 2026-01-04T03:28:02.808480
MEAN_MOTION    = 15.50672290
ECCENTRICITY   = .00099129
INCLINATION    = 43.0005
RA_OF_ASC_NODE = 47.2871
ARG_OF_PERICENTER = 231.3502
MEAN_ANOMALY   = 128.6472

EPHEMERIS_TYPE = 0
CLASSIFICATION_TYPE = U
NORAD_CAT_ID   = 67054
ELEMENT_SET_NO = 999
REV_AT_EPOCH   = 487
BSTAR          = .13187808E-2
MEAN_MOTION_DOT = .782E-3
MEAN_MOTION_DDOT = 0

CCSDS_OMM_VERS = 2.0
CREATION_DATE  = 
ORIGINATOR     = 

OBJECT_NAME    = STARLINK-35790
OBJECT_ID      = 2025-294AB
CENTER_NAME    = EARTH
REF_FRAME      = TEME
TIME_SYSTEM    = UTC
MEAN_ELEMENT_THEORY = SGP/SGP4

EPOCH          = 2026-01-03T12:00:02.804544
MEAN_MOTION    = 15.50646640
ECCENTRICITY   = .00026561
INCLINATION    = 43.0001
RA_OF_ASC_NODE = 51.0490
ARG_OF_PERICENTER = 273.9627
MEAN_ANOMALY   = 86.0930

EPHEMERIS_TYPE = 0
CLASSIFICATION_TYPE = U
NORAD_CAT_ID   = 67055
ELEMENT_SET_NO = 999
REV_AT_EPOCH   = 477
BSTAR          = .32162955E-2
MEAN_MOTION_DOT = .193555E-2
MEAN_MOTION_DDOT = 0

CCSDS_OMM_VERS = 2.0
CREATION_DATE  = 
ORIGINATOR     = 

OBJECT_NAME    = STARLINK-36143
OBJECT_ID      = 2025-294AC
CENTER_NAME    = EARTH
REF_FRAME      = TEME
TIME_SYSTEM    = UTC
MEAN_ELEMENT_THEORY = SGP/SGP4

EPOCH          = 2026-01-02T06:36:14.262912
MEAN_MOTION    = 15.50285346
ECCENTRICITY   = .0001273
INCLINATION    = 43.0002
RA_OF_ASC_NODE = 58.1981
ARG_OF_PERICENTER = 265.4668
MEAN_ANOMALY   = 94.6047

EPHEMERIS_TYPE = 0
CLASSIFICATION_TYPE = U
NORAD_CAT_ID   = 67056
ELEMENT_SET_NO = 999
REV_AT_EPOCH   = 458
BSTAR          = -.32411E-2
MEAN_MOTION_DOT = -.184142E-2
MEAN_MOTION_DDOT = 0

CCSDS_OMM_VERS = 2.0
CREATION_DATE  = 
ORIGINATOR     = 

OBJECT_NAME    = STARLINK-36141
OBJECT_ID      = 2025-294AD
CENTER_NAME    = EARTH
REF_FRAME      = TEME
TIME_SYSTEM    = UTC
MEAN_ELEMENT_THEORY = SGP/SGP4

EPOCH          = 2026-01-02T14:20:28.580064
MEAN_MOTION    = 15.50512095
ECCENTRICITY   = .0001393
INCLINATION    = 43.0006
RA_OF_ASC_NODE = 56.3183
ARG_OF_PERICENTER = 271.7628
MEAN_ANOMALY   = 88.3073

EPHEMERIS_TYPE = 0
CLASSIFICATION_TYPE = U
NORAD_CAT_ID   = 67057
ELEMENT_SET_NO = 999
REV_AT_EPOCH   = 463
BSTAR          = .7806271E-3
MEAN_MOTION_DOT = .45612E-3
MEAN_MOTION_DDOT = 0

CCSDS_OMM_VERS = 2.0
CREATION_DATE  = 
ORIGINATOR     = 

OBJECT_NAME    = STARLINK-35767
OBJECT_ID      = 2025-294AE
CENTER_NAME    = EARTH
REF_FRAME      = TEME
TIME_SYSTEM    = UTC
MEAN_ELEMENT_THEORY = SGP/SGP4

EPOCH          = 2026-01-04T06:00:02.000160
MEAN_MOTION    = 15.46273993
ECCENTRICITY   = .00008344
INCLINATION    = 43.0000
RA_OF_ASC_NODE = 46.6799
ARG_OF_PERICENTER = 270.4712
MEAN_ANOMALY   = 315.5852

EPHEMERIS_TYPE = 0
CLASSIFICATION_TYPE = U
NORAD_CAT_ID   = 67058
ELEMENT_SET_NO = 999
REV_AT_EPOCH   = 371
BSTAR          = -.46061857E-1
MEAN_MOTION_DOT = -.2064496E-1
MEAN_MOTION_DDOT = 0

CCSDS_OMM_VERS = 2.0
CREATION_DATE  = 
ORIGINATOR     = 

OBJECT_NAME    = HULIANWANG DIGUI-119
OBJECT_ID      = 2025-295A
CENTER_NAME    = EARTH
REF_FRAME      = TEME
TIME_SYSTEM    = UTC
MEAN_ELEMENT_THEORY = SGP/SGP4

EPOCH          = 2026-01-04T06:51:47.055456
MEAN_MOTION    = 14.24627885
ECCENTRICITY   = .00138938
INCLINATION    = 50.0040
RA_OF_ASC_NODE = 277.1672
ARG_OF_PERICENTER = 326.2379
MEAN_ANOMALY   = 33.7648

EPHEMERIS_TYPE = 0
CLASSIFICATION_TYPE = U
NORAD_CAT_ID   = 67059
ELEMENT_SET_NO = 999
REV_AT_EPOCH   = 333
BSTAR          = .30081311E-3
MEAN_MOTION_DOT = .545E-5
MEAN_MOTION_DDOT = 0

CCSDS_OMM_VERS = 2.0
CREATION_DATE  = 
ORIGINATOR     = 

OBJECT_NAME    = HULIANWANG DIGUI-120
OBJECT_ID      = 2025-295B
CENTER_NAME    = EARTH
REF_FRAME      = TEME
TIME_SYSTEM    = UTC
MEAN_ELEMENT_THEORY = SGP/SGP4

EPOCH          = 2026-01-04T06:44:44.439360
MEAN_MOTION    = 14.24629669
ECCENTRICITY   = .00132701
INCLINATION    = 50.0048
RA_OF_ASC_NODE = 277.1421
ARG_OF_PERICENTER = 326.8421
MEAN_ANOMALY   = 33.1660

EPHEMERIS_TYPE = 0
CLASSIFICATION_TYPE = U
NORAD_CAT_ID   = 67060
ELEMENT_SET_NO = 999
REV_AT_EPOCH   = 333
BSTAR          = .29215059E-3
MEAN_MOTION_DOT = .524E-5
MEAN_MOTION_DDOT = 0

CCSDS_OMM_VERS = 2.0
CREATION_DATE  = 
ORIGINATOR     = 

OBJECT_NAME    = HULIANWANG DIGUI-121
OBJECT_ID      = 2025-295C
CENTER_NAME    = EARTH
REF_FRAME      = TEME
TIME_SYSTEM    = UTC
MEAN_ELEMENT_THEORY = SGP/SGP4

EPOCH          = 2026-01-04T06:47:13.750656
MEAN_MOTION    = 14.24646506
ECCENTRICITY   = .00131753
INCLINATION    = 50.0011
RA_OF_ASC_NODE = 277.1361
ARG_OF_PERICENTER = 326.0835
MEAN_ANOMALY   = 33.9234

EPHEMERIS_TYPE = 0
CLASSIFICATION_TYPE = U
NORAD_CAT_ID   = 67061
ELEMENT_SET_NO = 999
REV_AT_EPOCH   = 333
BSTAR          = .29808091E-3
MEAN_MOTION_DOT = .538E-5
MEAN_MOTION_DDOT = 0

CCSDS_OMM_VERS = 2.0
CREATION_DATE  = 
ORIGINATOR     = 

OBJECT_NAME    = HULIANWANG DIGUI-122
OBJECT_ID      = 2025-295D
CENTER_NAME    = EARTH
REF_FRAME      = TEME
TIME_SYSTEM    = UTC
MEAN_ELEMENT_THEORY = SGP/SGP4

EPOCH          = 2026-01-04T06:43:26.604192
MEAN_MOTION    = 14.24621732
ECCENTRICITY   = .00130163
INCLINATION    = 50.0043
RA_OF_ASC_NODE = 277.1351
ARG_OF_PERICENTER = 332.0337
MEAN_ANOMALY   = 27.9876

EPHEMERIS_TYPE = 0
CLASSIFICATION_TYPE = U
NORAD_CAT_ID   = 67062
ELEMENT_SET_NO = 999
REV_AT_EPOCH   = 333
BSTAR          = .29311307E-3
MEAN_MOTION_DOT = .526E-5
MEAN_MOTION_DDOT = 0

CCSDS_OMM_VERS = 2.0
CREATION_DATE  = 
ORIGINATOR     = 

OBJECT_NAME    = HULIANWANG DIGUI-123
OBJECT_ID      = 2025-295E
CENTER_NAME    = EARTH
REF_FRAME      = TEME
TIME_SYSTEM    = UTC
MEAN_ELEMENT_THEORY = SGP/SGP4

EPOCH          = 2026-01-04T06:41:57.535296
MEAN_MOTION    = 14.24627381
ECCENTRICITY   = .00119502
INCLINATION    = 50.0049
RA_OF_ASC_NODE = 277.1328
ARG_OF_PERICENTER = 331.5448
MEAN_ANOMALY   = 28.4812

EPHEMERIS_TYPE = 0
CLASSIFICATION_TYPE = U
NORAD_CAT_ID   = 67063
ELEMENT_SET_NO = 999
REV_AT_EPOCH   = 333
BSTAR          = .2900039E-3
MEAN_MOTION_DOT = .519E-5
MEAN_MOTION_DDOT = 0

